{"fetched_at":"2026-07-15T17:46:46.517Z","source":"https://celestrak.org/NORAD/elements/gp.php?GROUP=oneweb&FORMAT=JSON","constellation":"oneweb","records":[{"OBJECT_NAME":"ONEWEB-0371","OBJECT_ID":"2021-090U","EPOCH":"2026-07-14T18:53:32.069472","CLASSIFICATION_TYPE":"U","MEAN_MOTION":13.19725011,"ECCENTRICITY":0.00020975,"INCLINATION":87.9191,"RA_OF_ASC_NODE":299.4722,"ARG_OF_PERICENTER":102.0345,"MEAN_ANOMALY":258.1023,"EPHEMERIS_TYPE":0,"NORAD_CAT_ID":49297,"ELEMENT_SET_NO":999,"REV_AT_EPOCH":23009,"BSTAR":0.000039888008,"MEAN_MOTION_DOT":2.9e-7,"MEAN_MOTION_DDOT":0},{"OBJECT_NAME":"ONEWEB-0372","OBJECT_ID":"2021-090V","EPOCH":"2026-07-14T17:42:12.221280","CLASSIFICATION_TYPE":"U","MEAN_MOTION":13.20769687,"ECCENTRICITY":0.00020883,"INCLINATION":87.9189,"RA_OF_ASC_NODE":268.9523,"ARG_OF_PERICENTER":100.9091,"MEAN_ANOMALY":259.2278,"EPHEMERIS_TYPE":0,"NORAD_CAT_ID":49298,"ELEMENT_SET_NO":999,"REV_AT_EPOCH":23347,"BSTAR":0.000007998528,"MEAN_MOTION_DOT":1.6e-7,"MEAN_MOTION_DDOT":0},{"OBJECT_NAME":"ONEWEB-0373","OBJECT_ID":"2021-090W","EPOCH":"2026-07-15T03:24:12.930912","CLASSIFICATION_TYPE":"U","MEAN_MOTION":13.20773121,"ECCENTRICITY":0.000209,"INCLINATION":87.9182,"RA_OF_ASC_NODE":268.8713,"ARG_OF_PERICENTER":96.4388,"MEAN_ANOMALY":263.6984,"EPHEMERIS_TYPE":0,"NORAD_CAT_ID":49299,"ELEMENT_SET_NO":999,"REV_AT_EPOCH":23471,"BSTAR":0.00016122,"MEAN_MOTION_DOT":7.9e-7,"MEAN_MOTION_DDOT":0},{"OBJECT_NAME":"ONEWEB-0374","OBJECT_ID":"2021-090X","EPOCH":"2026-07-15T04:56:54.669120","CLASSIFICATION_TYPE":"U","MEAN_MOTION":13.14503251,"ECCENTRICITY":0.0001552,"INCLINATION":87.8969,"RA_OF_ASC_NODE":284.1159,"ARG_OF_PERICENTER":88.4842,"MEAN_ANOMALY":271.6465,"EPHEMERIS_TYPE":0,"NORAD_CAT_ID":49300,"ELEMENT_SET_NO":999,"REV_AT_EPOCH":23124,"BSTAR":-0.00030918,"MEAN_MOTION_DOT":-0.00000102,"MEAN_MOTION_DDOT":0},{"OBJECT_NAME":"ONEWEB-0375","OBJECT_ID":"2021-090Y","EPOCH":"2026-07-15T03:07:14.998080","CLASSIFICATION_TYPE":"U","MEAN_MOTION":13.20773078,"ECCENTRICITY":0.000168,"INCLINATION":87.9186,"RA_OF_ASC_NODE":268.8661,"ARG_OF_PERICENTER":86.3865,"MEAN_ANOMALY":273.7461,"EPHEMERIS_TYPE":0,"NORAD_CAT_ID":49301,"ELEMENT_SET_NO":999,"REV_AT_EPOCH":23421,"BSTAR":0.00011893,"MEAN_MOTION_DOT":6.1e-7,"MEAN_MOTION_DDOT":0},{"OBJECT_NAME":"ONEWEB-0376","OBJECT_ID":"2021-090Z","EPOCH":"2026-07-14T18:51:14.945760","CLASSIFICATION_TYPE":"U","MEAN_MOTION":13.19726371,"ECCENTRICITY":0.00020648,"INCLINATION":87.9191,"RA_OF_ASC_NODE":299.4723,"ARG_OF_PERICENTER":105.8943,"MEAN_ANOMALY":254.2418,"EPHEMERIS_TYPE":0,"NORAD_CAT_ID":49302,"ELEMENT_SET_NO":999,"REV_AT_EPOCH":23009,"BSTAR":0.000086521825,"MEAN_MOTION_DOT":4.8e-7,"MEAN_MOTION_DDOT":0},{"OBJECT_NAME":"ONEWEB-0377","OBJECT_ID":"2021-090AA","EPOCH":"2026-07-15T04:37:08.786784","CLASSIFICATION_TYPE":"U","MEAN_MOTION":13.20773385,"ECCENTRICITY":0.0001943,"INCLINATION":87.9187,"RA_OF_ASC_NODE":268.8556,"ARG_OF_PERICENTER":94.9118,"MEAN_ANOMALY":265.2237,"EPHEMERIS_TYPE":0,"NORAD_CAT_ID":49303,"ELEMENT_SET_NO":999,"REV_AT_EPOCH":23421,"BSTAR":0.000081002,"MEAN_MOTION_DOT":4.6e-7,"MEAN_MOTION_DDOT":0},{"OBJECT_NAME":"ONEWEB-0378","OBJECT_ID":"2021-090AB","EPOCH":"2026-07-15T05:06:15.369696","CLASSIFICATION_TYPE":"U","MEAN_MOTION":13.20772351,"ECCENTRICITY":0.000192,"INCLINATION":87.9182,"RA_OF_ASC_NODE":268.8552,"ARG_OF_PERICENTER":98.3871,"MEAN_ANOMALY":261.748,"EPHEMERIS_TYPE":0,"NORAD_CAT_ID":49304,"ELEMENT_SET_NO":999,"REV_AT_EPOCH":23348,"BSTAR":0.00025556,"MEAN_MOTION_DOT":0.00000117,"MEAN_MOTION_DDOT":0},{"OBJECT_NAME":"ONEWEB-0379","OBJECT_ID":"2021-090AC","EPOCH":"2026-07-15T04:50:04.127424","CLASSIFICATION_TYPE":"U","MEAN_MOTION":13.14502582,"ECCENTRICITY":0.00019,"INCLINATION":87.8969,"RA_OF_ASC_NODE":284.127,"ARG_OF_PERICENTER":99.4999,"MEAN_ANOMALY":260.6345,"EPHEMERIS_TYPE":0,"NORAD_CAT_ID":49305,"ELEMENT_SET_NO":999,"REV_AT_EPOCH":23124,"BSTAR":-0.00040397,"MEAN_MOTION_DOT":-0.00000137,"MEAN_MOTION_DDOT":0},{"OBJECT_NAME":"ONEWEB-0380","OBJECT_ID":"2021-090AD","EPOCH":"2026-07-14T18:46:42.938688","CLASSIFICATION_TYPE":"U","MEAN_MOTION":13.1972661,"ECCENTRICITY":0.00020192,"INCLINATION":87.9186,"RA_OF_ASC_NODE":299.4761,"ARG_OF_PERICENTER":95.4331,"MEAN_ANOMALY":264.7032,"EPHEMERIS_TYPE":0,"NORAD_CAT_ID":49306,"ELEMENT_SET_NO":999,"REV_AT_EPOCH":23006,"BSTAR":-0.00016010155,"MEAN_MOTION_DOT":-5.1e-7,"MEAN_MOTION_DDOT":0},{"OBJECT_NAME":"ONEWEB-0381","OBJECT_ID":"2021-090AE","EPOCH":"2026-07-15T04:32:04.841088","CLASSIFICATION_TYPE":"U","MEAN_MOTION":13.20771346,"ECCENTRICITY":0.0001828,"INCLINATION":87.9188,"RA_OF_ASC_NODE":268.8609,"ARG_OF_PERICENTER":95.1435,"MEAN_ANOMALY":264.9907,"EPHEMERIS_TYPE":0,"NORAD_CAT_ID":49307,"ELEMENT_SET_NO":999,"REV_AT_EPOCH":23352,"BSTAR":-0.00062559,"MEAN_MOTION_DOT":-0.00000241,"MEAN_MOTION_DDOT":0},{"OBJECT_NAME":"ONEWEB-0382","OBJECT_ID":"2021-090AF","EPOCH":"2026-07-15T04:12:43.278624","CLASSIFICATION_TYPE":"U","MEAN_MOTION":13.20771909,"ECCENTRICITY":0.0001782,"INCLINATION":87.9185,"RA_OF_ASC_NODE":268.8577,"ARG_OF_PERICENTER":97.1549,"MEAN_ANOMALY":262.9787,"EPHEMERIS_TYPE":0,"NORAD_CAT_ID":49308,"ELEMENT_SET_NO":999,"REV_AT_EPOCH":23351,"BSTAR":0.000063998,"MEAN_MOTION_DOT":3.9e-7,"MEAN_MOTION_DDOT":0},{"OBJECT_NAME":"ONEWEB-0383","OBJECT_ID":"2021-090AG","EPOCH":"2026-07-15T04:40:56.082720","CLASSIFICATION_TYPE":"U","MEAN_MOTION":13.14502915,"ECCENTRICITY":0.0001863,"INCLINATION":87.8973,"RA_OF_ASC_NODE":284.1203,"ARG_OF_PERICENTER":101.0849,"MEAN_ANOMALY":259.049,"EPHEMERIS_TYPE":0,"NORAD_CAT_ID":49309,"ELEMENT_SET_NO":999,"REV_AT_EPOCH":23127,"BSTAR":-0.00049756,"MEAN_MOTION_DOT":-0.00000172,"MEAN_MOTION_DDOT":0},{"OBJECT_NAME":"ONEWEB-0384","OBJECT_ID":"2021-090AH","EPOCH":"2026-07-15T03:55:05.191392","CLASSIFICATION_TYPE":"U","MEAN_MOTION":13.20814046,"ECCENTRICITY":0.000158,"INCLINATION":87.9189,"RA_OF_ASC_NODE":268.904,"ARG_OF_PERICENTER":99.2166,"MEAN_ANOMALY":260.9146,"EPHEMERIS_TYPE":0,"NORAD_CAT_ID":49310,"ELEMENT_SET_NO":999,"REV_AT_EPOCH":23352,"BSTAR":0.0002448,"MEAN_MOTION_DOT":0.00000113,"MEAN_MOTION_DDOT":0},{"OBJECT_NAME":"ONEWEB-0385","OBJECT_ID":"2021-090AJ","EPOCH":"2026-07-15T04:03:00.379296","CLASSIFICATION_TYPE":"U","MEAN_MOTION":13.20769389,"ECCENTRICITY":0.0001876,"INCLINATION":87.9183,"RA_OF_ASC_NODE":268.8646,"ARG_OF_PERICENTER":96.8156,"MEAN_ANOMALY":263.319,"EPHEMERIS_TYPE":0,"NORAD_CAT_ID":49311,"ELEMENT_SET_NO":999,"REV_AT_EPOCH":23349,"BSTAR":-9.7267e-8,"MEAN_MOTION_DOT":1.3e-7,"MEAN_MOTION_DDOT":0},{"OBJECT_NAME":"ONEWEB-0386","OBJECT_ID":"2021-090AK","EPOCH":"2026-07-15T04:27:14.291712","CLASSIFICATION_TYPE":"U","MEAN_MOTION":13.20773343,"ECCENTRICITY":0.0001792,"INCLINATION":87.919,"RA_OF_ASC_NODE":268.8531,"ARG_OF_PERICENTER":98.2826,"MEAN_ANOMALY":261.851,"EPHEMERIS_TYPE":0,"NORAD_CAT_ID":49312,"ELEMENT_SET_NO":999,"REV_AT_EPOCH":23351,"BSTAR":-0.000045801,"MEAN_MOTION_DOT":-6e-8,"MEAN_MOTION_DDOT":0}]}
